start=new Date('2022-04-09T00:00:00.000Z').valueOf();
sats=[{"LAUNCH_DATE":"2021-03-11","DECAY_DATE":null,"GP_ID":"200746448","CLASSIFICATION_TYPE":"U","TLE_LINE2":"2 47801  53.0482 181.6371 0001483  61.7106 298.4033 15.06403562 61095","REV_AT_EPOCH":"6109","TLE_LINE1":"1 47801U 21018Q   22098.48697167  .00001269  00000-0  10408-3 0  9995","MEAN_ANOMALY":"298.4033","COUNTRY_CODE":"US","FILE":"3393517","ECCENTRICITY":"0.00014830","EPOCH":"2022-04-08T11:41:14.352288","PERIOD":"95.592","MEAN_ELEMENT_THEORY":"SGP4","CENTER_NAME":"EARTH","ARG_OF_PERICENTER":"61.7106","EPHEMERIS_TYPE":"0","ELEMENT_SET_NO":"999","OBJECT_NAME":"STARLINK-2382","REF_FRAME":"TEME","TIME_SYSTEM":"UTC","MEAN_MOTION":"15.06403562","RA_OF_ASC_NODE":"181.6371","INCLINATION":"53.0482","MEAN_MOTION_DOT":"0.00001269","NORAD_CAT_ID":"47801","OBJECT_ID":"2021-018Q","PERIAPSIS":"546.176","RCS_SIZE":"LARGE","SEMIMAJOR_AXIS":"6925.338","OBJECT_TYPE":"PAYLOAD","MEAN_MOTION_DDOT":"0.0000000000000","APOAPSIS":"548.230","BSTAR":"0.00010408000000","SITE":"AFETR"},{"PERIAPSIS":"546.215","OBJECT_ID":"2021-018R","NORAD_CAT_ID":"47802","MEAN_MOTION_DOT":"0.00004778","INCLINATION":"53.0524","RA_OF_ASC_NODE":"200.1308","MEAN_MOTION":"15.06421390","TIME_SYSTEM":"UTC","SITE":"AFETR","BSTAR":"0.00033925000000","APOAPSIS":"548.081","MEAN_MOTION_DDOT":"0.0000000000000","OBJECT_TYPE":"PAYLOAD","SEMIMAJOR_AXIS":"6925.283","RCS_SIZE":"LARGE","MEAN_ANOMALY":"292.3118","TLE_LINE1":"1 47802U 21018R   22098.79843129  .00004778  00000-0  33925-3 0  9998","REV_AT_EPOCH":"6086","TLE_LINE2":"2 47802  53.0524 200.1308 0001347  67.8014 292.3118 15.06421390 60864","CLASSIFICATION_TYPE":"U","GP_ID":"200781438","DECAY_DATE":null,"LAUNCH_DATE":"2021-03-11","REF_FRAME":"TEME","OBJECT_NAME":"STARLINK-2383","ELEMENT_SET_NO":"999","EPHEMERIS_TYPE":"0","ARG_OF_PERICENTER":"67.8014","CENTER_NAME":"EARTH","MEAN_ELEMENT_THEORY":"SGP4","PERIOD":"95.591","EPOCH":"2022-04-08T19:09:44.463456","ECCENTRICITY":"0.00013470","FILE":"3393990","COUNTRY_CODE":"US"},{"PERIAPSIS":"545.933","OBJECT_ID":"2021-018S","INCLINATION":"53.0527","MEAN_MOTION_DOT":"0.00003460","NORAD_CAT_ID":"47803","TIME_SYSTEM":"UTC","RA_OF_ASC_NODE":"175.4572","MEAN_MOTION":"15.06411128","SITE":"AFETR","MEAN_MOTION_DDOT":"0.0000000000000","APOAPSIS":"548.426","BSTAR":"0.00025099000000","RCS_SIZE":"LARGE","SEMIMAJOR_AXIS":"6925.314","OBJECT_TYPE":"PAYLOAD","MEAN_ANOMALY":"311.1721","TLE_LINE1":"1 47803U 21018S   22098.72886595  .00003460  00000-0  25099-3 0  9996","CLASSIFICATION_TYPE":"U","REV_AT_EPOCH":"6119","TLE_LINE2":"2 47803  53.0527 175.4572 0001800  48.9423 311.1721 15.06411128 61198","LAUNCH_DATE":"2021-03-11","GP_ID":"200782188","DECAY_DATE":null,"OBJECT_NAME":"STARLINK-2384","REF_FRAME":"TEME","EPHEMERIS_TYPE":"0","ELEMENT_SET_NO":"999","PERIOD":"95.591","MEAN_ELEMENT_THEORY":"SGP4","CENTER_NAME":"EARTH","ARG_OF_PERICENTER":"48.9423","FILE":"3393990","COUNTRY_CODE":"US","ECCENTRICITY":"0.00018000","EPOCH":"2022-04-08T17:29:34.018080"},{"FILE":"3393990","COUNTRY_CODE":"US","EPOCH":"2022-04-08T16:15:15.591456","ECCENTRICITY":"0.00016420","MEAN_ELEMENT_THEORY":"SGP4","PERIOD":"95.591","CENTER_NAME":"EARTH","ARG_OF_PERICENTER":"54.9847","EPHEMERIS_TYPE":"0","ELEMENT_SET_NO":"999","OBJECT_NAME":"STARLINK-2385","REF_FRAME":"TEME","LAUNCH_DATE":"2021-03-11","GP_ID":"200780936","DECAY_DATE":null,"CLASSIFICATION_TYPE":"U","REV_AT_EPOCH":"6118","TLE_LINE2":"2 47804  53.0544 175.6880 0001642  54.9847 305.1296 15.06414935 61181","TLE_LINE1":"1 47804U 21018T   22098.67726379  .00004757  00000-0  33789-3 0  9999","MEAN_ANOMALY":"305.1296","RCS_SIZE":"LARGE","OBJECT_TYPE":"PAYLOAD","SEMIMAJOR_AXIS":"6925.303","APOAPSIS":"548.305","MEAN_MOTION_DDOT":"0.0000000000000","BSTAR":"0.00033789000000","SITE":"AFETR","TIME_SYSTEM":"UTC","RA_OF_ASC_NODE":"175.6880","MEAN_MOTION":"15.06414935","MEAN_MOTION_DOT":"0.00004757","INCLINATION":"53.0544","NORAD_CAT_ID":"47804","OBJECT_ID":"2021-018T","PERIAPSIS":"546.031"},{"RCS_SIZE":"LARGE","SEMIMAJOR_AXIS":"6925.271","OBJECT_TYPE":"PAYLOAD","APOAPSIS":"548.424","MEAN_MOTION_DDOT":"0.0000000000000","BSTAR":"0.00084174000000","SITE":"AFETR","TIME_SYSTEM":"UTC","RA_OF_ASC_NODE":"176.5281","MEAN_MOTION":"15.06425155","INCLINATION":"53.0536","MEAN_MOTION_DOT":"0.00012287","NORAD_CAT_ID":"47805","OBJECT_ID":"2021-018U","PERIAPSIS":"545.849","COUNTRY_CODE":"US","FILE":"3393517","ECCENTRICITY":"0.00018590","EPOCH":"2022-04-08T11:43:12.208800","PERIOD":"95.591","MEAN_ELEMENT_THEORY":"SGP4","ARG_OF_PERICENTER":"56.5052","CENTER_NAME":"EARTH","EPHEMERIS_TYPE":"0","ELEMENT_SET_NO":"999","OBJECT_NAME":"STARLINK-2386","REF_FRAME":"TEME","LAUNCH_DATE":"2021-03-11","GP_ID":"200745949","DECAY_DATE":null,"CLASSIFICATION_TYPE":"U","TLE_LINE2":"2 47805  53.0536 176.5281 0001859  56.5052 303.6115 15.06425155 61161","REV_AT_EPOCH":"6116","TLE_LINE1":"1 47805U 21018U   22098.48833575  .00012287  00000-0  84174-3 0  9997","MEAN_ANOMALY":"303.6115"},{"TIME_SYSTEM":"UTC","MEAN_MOTION":"15.06419109","RA_OF_ASC_NODE":"190.5213","INCLINATION":"53.0525","MEAN_MOTION_DOT":"0.00005671","NORAD_CAT_ID":"47806","OBJECT_ID":"2021-018V","PERIAPSIS":"545.943","RCS_SIZE":"LARGE","SEMIMAJOR_AXIS":"6925.290","OBJECT_TYPE":"PAYLOAD","APOAPSIS":"548.367","MEAN_MOTION_DDOT":"0.0000000000000","BSTAR":"0.00039911000000","SITE":"AFETR","LAUNCH_DATE":"2021-03-11","GP_ID":"200781938","DECAY_DATE":null,"CLASSIFICATION_TYPE":"U","REV_AT_EPOCH":"6104","TLE_LINE2":"2 47806  53.0525 190.5213 0001750  44.8019 315.3111 15.06419109 61049","TLE_LINE1":"1 47806U 21018V   22098.71363078  .00005671  00000-0  39911-3 0  9998","MEAN_ANOMALY":"315.3111","FILE":"3393990","COUNTRY_CODE":"US","ECCENTRICITY":"0.00017500","EPOCH":"2022-04-08T17:07:37.699392","PERIOD":"95.591","MEAN_ELEMENT_THEORY":"SGP4","ARG_OF_PERICENTER":"44.8019","CENTER_NAME":"EARTH","EPHEMERIS_TYPE":"0","ELEMENT_SET_NO":"999","OBJECT_NAME":"STARLINK-2387","REF_FRAME":"TEME"},{"APOAPSIS":"548.363","MEAN_MOTION_DDOT":"0.0000000000000","BSTAR":"0.00083406000000","SITE":"AFETR","RCS_SIZE":"LARGE","SEMIMAJOR_AXIS":"6925.280","OBJECT_TYPE":"PAYLOAD","OBJECT_ID":"2021-018W","PERIAPSIS":"545.928","TIME_SYSTEM":"UTC","MEAN_MOTION":"15.06422218","RA_OF_ASC_NODE":"166.4600","INCLINATION":"53.0541","MEAN_MOTION_DOT":"0.00012171","NORAD_CAT_ID":"47807","EPHEMERIS_TYPE":"0","ELEMENT_SET_NO":"999","OBJECT_NAME":"STARLINK-2388","REF_FRAME":"TEME","COUNTRY_CODE":"US","FILE":"3393742","ECCENTRICITY":"0.00017580","EPOCH":"2022-04-08T12:07:07.247136","PERIOD":"95.591","MEAN_ELEMENT_THEORY":"SGP4","ARG_OF_PERICENTER":"46.4220","CENTER_NAME":"EARTH","TLE_LINE1":"1 47807U 21018W   22098.50494499  .00012171  00000-0  83406-3 0  9999","MEAN_ANOMALY":"313.6915","LAUNCH_DATE":"2021-03-11","DECAY_DATE":null,"GP_ID":"200753806","CLASSIFICATION_TYPE":"U","REV_AT_EPOCH":"6095","TLE_LINE2":"2 47807  53.0541 166.4600 0001758  46.4220 313.6915 15.06422218 60957"},{"COUNTRY_CODE":"US","FILE":"3393196","ECCENTRICITY":"0.00016000","EPOCH":"2022-04-08T12:48:55.068480","PERIOD":"95.591","MEAN_ELEMENT_THEORY":"SGP4","ARG_OF_PERICENTER":"54.5737","CENTER_NAME":"EARTH","EPHEMERIS_TYPE":"0","ELEMENT_SET_NO":"999","OBJECT_NAME":"STARLINK-2389","REF_FRAME":"TEME","LAUNCH_DATE":"2021-03-11","DECAY_DATE":null,"GP_ID":"200718783","CLASSIFICATION_TYPE":"U","REV_AT_EPOCH":"6061","TLE_LINE2":"2 47808  53.0527 191.3392 0001600  54.5737 305.5401 15.06418486 60611","TLE_LINE1":"1 47808U 21018X   22098.53397070  .00006981  00000-0  48683-3 0  9990","MEAN_ANOMALY":"305.5401","RCS_SIZE":"LARGE","SEMIMAJOR_AXIS":"6925.292","OBJECT_TYPE":"PAYLOAD","APOAPSIS":"548.265","MEAN_MOTION_DDOT":"0.0000000000000","BSTAR":"0.00048683000000","SITE":"AFETR","TIME_SYSTEM":"UTC","RA_OF_ASC_NODE":"191.3392","MEAN_MOTION":"15.06418486","INCLINATION":"53.0527","MEAN_MOTION_DOT":"0.00006981","NORAD_CAT_ID":"47808","OBJECT_ID":"2021-018X","PERIAPSIS":"546.049"},{"OBJECT_TYPE":"PAYLOAD","SEMIMAJOR_AXIS":"6925.250","RCS_SIZE":"LARGE","SITE":"AFETR","BSTAR":"-0.00001179400000","APOAPSIS":"548.213","MEAN_MOTION_DDOT":"0.0000000000000","NORAD_CAT_ID":"47809","MEAN_MOTION_DOT":"-0.00000457","INCLINATION":"53.0532","RA_OF_ASC_NODE":"195.4087","MEAN_MOTION":"15.06432121","TIME_SYSTEM":"UTC","PERIAPSIS":"546.017","OBJECT_ID":"2021-018Y","ARG_OF_PERICENTER":"41.6669","CENTER_NAME":"EARTH","MEAN_ELEMENT_THEORY":"SGP4","PERIOD":"95.590","EPOCH":"2022-04-08T17:42:47.456064","ECCENTRICITY":"0.00015850","COUNTRY_CODE":"US","FILE":"3393990","REF_FRAME":"TEME","OBJECT_NAME":"STARLINK-2390","ELEMENT_SET_NO":"999","EPHEMERIS_TYPE":"0","REV_AT_EPOCH":"6097","TLE_LINE2":"2 47809  53.0532 195.4087 0001585  41.6669 318.4440 15.06432121 60974","CLASSIFICATION_TYPE":"U","DECAY_DATE":null,"GP_ID":"200781187","LAUNCH_DATE":"2021-03-11","MEAN_ANOMALY":"318.4440","TLE_LINE1":"1 47809U 21018Y   22098.73804926 -.00000457  00000-0 -11794-4 0  9994"},{"OBJECT_ID":"2021-018Z","PERIAPSIS":"546.123","RA_OF_ASC_NODE":"206.2030","MEAN_MOTION":"15.06419896","TIME_SYSTEM":"UTC","NORAD_CAT_ID":"47810","MEAN_MOTION_DOT":"0.00011350","INCLINATION":"53.0534","BSTAR":"0.00077923000000","APOAPSIS":"548.182","MEAN_MOTION_DDOT":"0.0000000000000","SITE":"AFETR","OBJECT_TYPE":"PAYLOAD","SEMIMAJOR_AXIS":"6925.288","RCS_SIZE":"LARGE","TLE_LINE1":"1 47810U 21018Z   22098.56391224  .00011350  00000-0  77923-3 0  9996","MEAN_ANOMALY":"293.5966","GP_ID":"200746701","DECAY_DATE":null,"LAUNCH_DATE":"2021-03-11","REV_AT_EPOCH":"6080","TLE_LINE2":"2 47810  53.0534 206.2030 0001486  66.5179 293.5966 15.06419896 60801","CLASSIFICATION_TYPE":"U","ELEMENT_SET_NO":"999","EPHEMERIS_TYPE":"0","REF_FRAME":"TEME","OBJECT_NAME":"STARLINK-2391","EPOCH":"2022-04-08T13:32:02.017536","ECCENTRICITY":"0.00014860","FILE":"3393517","COUNTRY_CODE":"US","ARG_OF_PERICENTER":"66.5179","CENTER_NAME":"EARTH","MEAN_ELEMENT_THEORY":"SGP4","PERIOD":"95.591"}];
